OBJECT_NAME,OBJECT_ID,EPOCH,MEAN_MOTION,ECCENTRICITY,INCLINATION,RA_OF_ASC_NODE,ARG_OF_PERICENTER,MEAN_ANOMALY,EPHEMERIS_TYPE,CLASSIFICATION_TYPE,NORAD_CAT_ID,ELEMENT_SET_NO,REV_AT_EPOCH,BSTAR,MEAN_MOTION_DOT,MEAN_MOTION_DDOT
STARLINK-37237,2026-114D,2026-06-17T03:37:35.118624,15.78100949,.0001223,53.1575,202.6302,54.0634,306.0501,0,U,69185,999,476,.97395E-3,.172241E-2,0
STARLINK-37365,2026-114E,2026-06-17T02:06:50.113728,15.78063003,.0000861,53.1577,202.9473,100.4166,259.6952,0,U,69186,999,475,.86799E-3,.152817E-2,0
STARLINK-37209,2026-114F,2026-06-17T03:36:55.409184,15.78083534,.000095,53.1575,202.6269,69.0899,291.0224,0,U,69187,999,476,.7872E-3,.138424E-2,0
STARLINK-37359,2026-114G,2026-06-17T03:36:17.488224,15.78073330,.0001708,53.1576,202.6245,33.9078,326.2053,0,U,69188,999,476,.84216E-3,.148241E-2,0
STARLINK-37440,2026-114H,2026-06-17T04:00:01.998720,15.72957501,.0001098,53.1597,202.0015,66.8177,288.4023,0,U,69189,999,481,-.11527E-1,-.1417769E-1,0
STARLINK-37282,2026-114J,2026-06-17T03:26:59.860896,15.78070969,.0001092,53.1572,202.5801,56.4298,303.6828,0,U,69190,999,476,.12361E-2,.219717E-2,0
STARLINK-37422,2026-114K,2026-06-15T10:03:30.055104,15.80999095,.00012671,53.1579,211.0244,164.9839,195.1222,0,U,69191,999,449,.13541344E-2,.276916E-2,0
STARLINK-37424,2026-114L,2026-06-17T03:27:09.228384,15.78085148,.0001127,53.1566,202.5810,62.9780,297.1356,0,U,69192,999,476,.78256E-3,.1376E-2,0
STARLINK-36666,2026-114M,2026-06-17T04:32:48.848064,15.81007107,.0002445,53.1565,202.1472,23.6032,336.5102,0,U,69193,999,477,.14695E-2,.301564E-2,0
STARLINK-37355,2026-114N,2026-06-16T16:23:27.333600,15.80911688,.0001247,53.1569,204.6772,74.2502,285.8658,0,U,69194,999,469,.56194E-3,.111857E-2,0
STARLINK-37166,2026-114P,2026-06-17T02:58:32.831040,15.80925007,.0001073,53.1565,202.4485,52.6237,307.4883,0,U,69195,999,476,.82422E-3,.165527E-2,0
STARLINK-36933,2026-114Q,2026-06-17T02:59:35.592000,15.80965986,.0001091,53.1567,202.4540,52.8396,307.2726,0,U,69196,999,476,.82653E-3,.166323E-2,0
STARLINK-37419,2026-114R,2026-06-17T02:57:28.050048,15.80928111,.0001187,53.1564,202.4429,38.8515,321.2593,0,U,69197,999,476,.91788E-3,.18486E-2,0
STARLINK-37321,2026-114S,2026-06-17T02:56:23.231904,15.80911815,.0001131,53.1568,202.4386,59.3720,300.7414,0,U,69198,999,476,.70701E-3,.141402E-2,0
STARLINK-37406,2026-114T,2026-06-16T19:20:09.151008,15.80781331,.0002224,53.1564,204.0172,59.2395,300.8847,0,U,69199,999,471,-.10705E-4,-.2804E-4,0
STARLINK-37761,2026-114U,2026-06-17T04:25:52.095072,15.79197520,.000452,53.1563,202.1135,181.3240,178.7770,0,U,69200,999,477,.36467E-3,.66537E-3,0
STARLINK-37754,2026-114V,2026-06-17T02:52:52.080672,15.80911391,.0001106,53.1562,202.4213,68.9318,291.1823,0,U,69201,999,476,.73009E-3,.146118E-2,0
STARLINK-37649,2026-114W,2026-06-17T02:52:04.046592,15.80908867,.0001088,53.1563,202.4177,64.9089,295.2047,0,U,69202,999,476,.73827E-3,.147774E-2,0
STARLINK-37604,2026-114X,2026-06-17T02:50:59.167968,15.80907069,.0000991,53.1562,202.4126,51.2075,308.9036,0,U,69203,999,476,.6582E-3,.13141E-2,0
STARLINK-37669,2026-114Y,2026-06-17T02:49:54.348096,15.80913381,.000118,53.1562,202.4073,61.6285,298.4856,0,U,69204,999,476,.73472E-3,.147079E-2,0
STARLINK-37691,2026-114Z,2026-06-17T03:10:37.337376,15.78087059,.0001243,53.1571,202.5034,46.8156,313.2969,0,U,69205,999,476,.91327E-3,.161157E-2,0
STARLINK-37671,2026-114AA,2026-06-17T03:00:05.780160,15.78093450,.0001409,53.1577,202.4548,49.4818,310.6326,0,U,69206,999,476,.84711E-3,.149267E-2,0
STARLINK-37647,2026-114AB,2026-06-17T02:48:49.599936,15.80910026,.0001405,53.1564,202.4027,43.9105,316.2029,0,U,69207,999,476,.72248E-3,.144554E-2,0
STARLINK-37562,2026-114AC,2026-06-17T03:03:02.174400,15.78098603,.0002129,53.1572,202.4704,38.4034,321.7138,0,U,69208,999,476,.57014E-3,.99686E-3,0
STARLINK-37682,2026-114AD,2026-06-17T02:44:30.196032,15.80915513,.0001242,53.1560,202.3818,50.0990,310.0141,0,U,69209,999,476,.99289E-3,.200269E-2,0
STARLINK-37402,2026-114AE,2026-06-17T02:43:25.364064,15.80897563,.0001475,53.1562,202.3767,39.4070,320.7060,0,U,69210,999,476,.7569E-3,.15151E-2,0
STARLINK-37613,2026-115A,2026-06-17T03:11:57.115680,15.49206874,.0000817,97.2837,185.2467,100.5196,259.6148,0,U,69211,999,465,.31435E-4,.1621E-4,0
STARLINK-37713,2026-115B,2026-06-17T04:00:01.998720,15.49213410,.0001721,97.2844,185.4076,96.8389,24.5380,0,U,69212,999,468,-.12723E-3,-.701E-4,0
STARLINK-37716,2026-115C,2026-06-17T04:00:01.998720,15.49211686,.000178,97.2842,185.4634,86.3240,165.3207,0,U,69213,999,468,-.55838E-3,-.30367E-3,0
STARLINK-37620,2026-115D,2026-06-17T03:32:30.996672,15.49197970,.0000537,97.2835,185.2267,94.9718,265.1595,0,U,69214,999,465,.56705E-3,.3088E-3,0
