STARLINK-37237          
1 69185U 26114D   26168.15110091  .00172241  00000+0  97395-3 0  9996
2 69185  53.1575 202.6302 0001223  54.0634 306.0501 15.78100949  4768
STARLINK-37365          
1 69186U 26114E   26168.08808002  .00152817  00000+0  86799-3 0  9998
2 69186  53.1577 202.9473 0000861 100.4166 259.6952 15.78063003  4757
STARLINK-37209          
1 69187U 26114F   26168.15064131  .00138424  00000+0  78720-3 0  9997
2 69187  53.1575 202.6269 0000950  69.0899 291.0224 15.78083534  4762
STARLINK-37359          
1 69188U 26114G   26168.15020241  .00148241  00000+0  84216-3 0  9997
2 69188  53.1576 202.6245 0001708  33.9078 326.2053 15.78073330  4763
STARLINK-37440          
1 69189U 26114H   26168.16668980 -.01417769  00000+0 -11527-1 0  9997
2 69189  53.1597 202.0015 0001098  66.8177 288.4023 15.72957501  4810
STARLINK-37282          
1 69190U 26114J   26168.14374839  .00219717  00000+0  12361-2 0  9992
2 69190  53.1572 202.5801 0001092  56.4298 303.6828 15.78070969  4763
STARLINK-37422          
1 69191U 26114K   26166.41909786  .00276916  00000+0  13541-2 0  9991
2 69191  53.1579 211.0244 0001267 164.9839 195.1222 15.80999095  4492
STARLINK-37424          
1 69192U 26114L   26168.14385681  .00137600  00000+0  78256-3 0  9997
2 69192  53.1566 202.5810 0001127  62.9780 297.1356 15.78085148  4763
STARLINK-36666          
1 69193U 26114M   26168.18945426  .00301564  00000+0  14695-2 0  9999
2 69193  53.1565 202.1472 0002445  23.6032 336.5102 15.81007107  4772
STARLINK-37355          
1 69194U 26114N   26167.68295525  .00111857  00000+0  56194-3 0  9997
2 69194  53.1569 204.6772 0001247  74.2502 285.8658 15.80911688  4690
STARLINK-37166          
1 69195U 26114P   26168.12399110  .00165527  00000+0  82422-3 0  9999
2 69195  53.1565 202.4485 0001073  52.6237 307.4883 15.80925007  4765
STARLINK-36933          
1 69196U 26114Q   26168.12471750  .00166323  00000+0  82653-3 0  9992
2 69196  53.1567 202.4540 0001091  52.8396 307.2726 15.80965986  4762
STARLINK-37419          
1 69197U 26114R   26168.12324132  .00184860  00000+0  91788-3 0  9999
2 69197  53.1564 202.4429 0001187  38.8515 321.2593 15.80928111  4766
STARLINK-37321          
1 69198U 26114S   26168.12249111  .00141402  00000+0  70701-3 0  9990
2 69198  53.1568 202.4386 0001131  59.3720 300.7414 15.80911815  4765
STARLINK-37406          
1 69199U 26114T   26167.80566147 -.00002804  00000+0 -10705-4 0  9999
2 69199  53.1564 204.0172 0002224  59.2395 300.8847 15.80781331  4718
STARLINK-37761          
1 69200U 26114U   26168.18463073  .00066537  00000+0  36467-3 0  9991
2 69200  53.1563 202.1135 0004520 181.3240 178.7770 15.79197520  4777
STARLINK-37754          
1 69201U 26114V   26168.12004723  .00146118  00000+0  73009-3 0  9996
2 69201  53.1562 202.4213 0001106  68.9318 291.1823 15.80911391  4760
STARLINK-37649          
1 69202U 26114W   26168.11949128  .00147774  00000+0  73827-3 0  9990
2 69202  53.1563 202.4177 0001088  64.9089 295.2047 15.80908867  4768
STARLINK-37604          
1 69203U 26114X   26168.11874037  .00131410  00000+0  65820-3 0  9991
2 69203  53.1562 202.4126 0000991  51.2075 308.9036 15.80907069  4761
STARLINK-37669          
1 69204U 26114Y   26168.11799014  .00147079  00000+0  73472-3 0  9993
2 69204  53.1562 202.4073 0001180  61.6285 298.4856 15.80913381  4769
STARLINK-37691          
1 69205U 26114Z   26168.13237659  .00161157  00000+0  91327-3 0  9990
2 69205  53.1571 202.5034 0001243  46.8156 313.2969 15.78087059  4762
STARLINK-37671          
1 69206U 26114AA  26168.12506690  .00149267  00000+0  84711-3 0  9991
2 69206  53.1577 202.4548 0001409  49.4818 310.6326 15.78093450  4766
STARLINK-37647          
1 69207U 26114AB  26168.11724074  .00144554  00000+0  72248-3 0  9995
2 69207  53.1564 202.4027 0001405  43.9105 316.2029 15.80910026  4761
STARLINK-37562          
1 69208U 26114AC  26168.12710850  .00099686  00000+0  57014-3 0  9993
2 69208  53.1572 202.4704 0002129  38.4034 321.7138 15.78098603  4764
STARLINK-37682          
1 69209U 26114AD  26168.11423838  .00200269  00000+0  99289-3 0  9991
2 69209  53.1560 202.3818 0001242  50.0990 310.0141 15.80915513  4769
STARLINK-37402          
1 69210U 26114AE  26168.11348801  .00151510  00000+0  75690-3 0  9993
2 69210  53.1562 202.3767 0001475  39.4070 320.7060 15.80897563  4766
STARLINK-37613          
1 69211U 26115A   26168.13329995  .00001621  00000+0  31435-4 0  9997
2 69211  97.2837 185.2467 0000817 100.5196 259.6148 15.49206874  4654
STARLINK-37713          
1 69212U 26115B   26168.16668980 -.00007010  00000+0 -12723-3 0  9999
2 69212  97.2844 185.4076 0001721  96.8389  24.5380 15.49213410  4681
STARLINK-37716          
1 69213U 26115C   26168.16668980 -.00030367  00000+0 -55838-3 0  9995
2 69213  97.2842 185.4634 0001780  86.3240 165.3207 15.49211686  4680
STARLINK-37620          
1 69214U 26115D   26168.14758098  .00030880  00000+0  56705-3 0  9996
2 69214  97.2835 185.2267 0000537  94.9718 265.1595 15.49197970  4652
